norad_id,name,regime,epoch,line1,line2,inclination,eccentricity,mean_motion,raan,arg_pericenter,mean_anomaly
40349,O3B FM11,MEO,18234.73568257,1 40349U 14083B   18234.73568257 -.00000032 +00000-0 +00000-0 0 0001\,2 40349 000.0371 009.9400 0003301 140.6877 209.3893 05.0011593206720,0.0371,0.0003301,5.00115932,9.94,140.6877,209.3893
40349,O3B FM11,MEO,18235.53524437,1 40349U 14083B   18235.53524437 -.00000031 +00000-0 +00000-0 0 0001\,2 40349 000.0371 010.0083 0003302 141.4302 208.5782 05.0011592406724,0.0371,0.0003302,5.00115924,10.0083,141.4302,208.5782
40349,O3B FM11,MEO,18236.33480612,1 40349U 14083B   18236.33480612 -.00000030 +00000-0 +00000-0 0 0001\,2 40349 000.0372 010.0689 0003301 142.1486 207.7990 05.0011591806728,0.0372,0.0003301,5.00115918,10.0689,142.1486,207.799
40349,O3B FM11,MEO,18237.33425857,1 40349U 14083B   18237.33425857 -.00000028 +00000-0 +00000-0 0 0001\,2 40349 000.0372 010.1359 0003301 143.1995 206.6808 05.0011588806733,0.0372,0.0003301,5.00115888,10.1359,143.1995,206.6808
40349,O3B FM11,MEO,18237.73403945,1 40349U 14083B   18237.73403945 -.00000028 +00000-0 +00000-0 0 0001\,2 40349 000.0372 010.1568 0003302 143.4486 206.4108 05.0011588806735,0.0372,0.0003302,5.00115888,10.1568,143.4486,206.4108
40349,O3B FM11,MEO,18238.33371069,1 40349U 14083B   18238.33371069 -.00000027 +00000-0 +00000-0 0 0001\,2 40349 000.0373 010.1033 0003300 143.8162 206.0967 05.0011589606737,0.0373,0.00033,5.00115896,10.1033,143.8162,206.0967
40349,O3B FM11,MEO,18238.53360107,1 40349U 14083B   18238.53360107 -.00000026 +00000-0 +00000-0 0 0001\,2 40349 000.0373 010.2183 0003301 143.9574 205.8405 05.0011589706739,0.0373,0.0003301,5.00115897,10.2183,143.9574,205.8405
40349,O3B FM11,MEO,18239.33316268,1 40349U 14083B   18239.33316268 -.00000025  00000-0  00000+0 0  2902\,2 40349   0.0373  10.1730 0003300 144.4425 205.4008  5.00115910 67438,0.0373,0.00033,5.0011591,10.173,144.4425,205.4008
40349,O3B FM11,MEO,18241.33206691,1 40349U 14083B   18241.33206691 -.00000021 +00000-0 +00000-0 0 0001\,2 40349 000.0375 010.3367 0003299 146.3020 203.3774 05.0011590106753,0.0375,0.0003299,5.00115901,10.3367,146.302,203.3774
40349,O3B FM11,MEO,18241.93173819,1 40349U 14083B   18241.93173819 -.00000020 +00000-0 +00000-0 0 0001\,2 40349 000.0375 010.3674 0003297 146.8579 202.7907 05.0011589506756,0.0375,0.0003297,5.00115895,10.3674,146.8579,202.7907
40349,O3B FM11,MEO,18242.73130038,1 40349U 14083B   18242.73130038 -.00000019 +00000-0 +00000-0 0 0001\,2 40349 000.0376 010.4172 0003297 147.3627 202.2360 05.0011585406760,0.0376,0.0003297,5.00115854,10.4172,147.3627,202.236
40349,O3B FM11,MEO,18243.73075255,1 40349U 14083B   18243.73075255 -.00000019  00000-0  00000+0 0  2913\,2 40349   0.0376  10.4295 0003296 148.0604 201.5259  5.00115846 67650,0.0376,0.0003296,5.00115846,10.4295,148.0604,201.5259
40349,O3B FM11,MEO,18244.73020471,1 40349U 14083B   18244.73020471 -.00000019 +00000-0 +00000-0 0 0001\,2 40349 000.0377 010.5727 0003293 148.9522 200.4903 05.0011582006770,0.0377,0.0003293,5.0011582,10.5727,148.9522,200.4903
40349,O3B FM11,MEO,18245.72965660,1 40349U 14083B   18245.72965660 -.00000019 +00000-0 +00000-0 0 0001\,2 40349 000.0378 010.6882 0003290 149.7371 199.5893 05.0011581406775,0.0378,0.000329,5.00115814,10.6882,149.7371,199.5893
40349,O3B FM11,MEO,18246.72910861,1 40349U 14083B   18246.72910861 -.00000021 +00000-0 +00000-0 0 0001\,2 40349 000.0378 010.8272 0003291 150.5086 198.6780 05.0011579506780,0.0378,0.0003291,5.00115795,10.8272,150.5086,198.678
40349,O3B FM11,MEO,18247.52866994,1 40349U 14083B   18247.52866994 -.00000022 +00000-0 +00000-0 0 0001\,2 40349 000.0379 010.8766 0003290 151.1428 197.9936 05.0011580106783,0.0379,0.000329,5.00115801,10.8766,151.1428,197.9936
40349,O3B FM11,MEO,18249.12779270,1 40349U 14083B   18249.12779270 -.00000025  00000-0  00000+0 0  2928\,2 40349   0.0380  11.2060 0003287 152.1873 196.6180  5.00115799 67922,0.038,0.0003287,5.00115799,11.206,152.1873,196.618
40349,O3B FM11,MEO,18249.32768306,1 40349U 14083B   18249.32768306 -.00000025 +00000-0 +00000-0 0 0001\,2 40349 000.0380 011.2258 0003286 152.3228 196.4626 05.0011579806793,0.038,0.0003286,5.00115798,11.2258,152.3228,196.4626
40349,O3B FM11,MEO,18249.52757340,1 40349U 14083B   18249.52757340 -.00000026 +00000-0 +00000-0 0 0001\,2 40349 000.0380 011.2297 0003286 152.4162 196.3651 05.0011580206794,0.038,0.0003286,5.00115802,11.2297,152.4162,196.3651
40349,O3B FM11,MEO,18250.32713483,1 40349U 14083B   18250.32713483 -.00000027 +00000-0 +00000-0 0 0001\,2 40349 000.0380 011.3345 0003281 153.3400 195.3354 05.0011579206798,0.038,0.0003281,5.00115792,11.3345,153.34,195.3354
40349,O3B FM11,MEO,18250.52702529,1 40349U 14083B   18250.52702529 -.00000027 +00000-0 +00000-0 0 0001\,2 40349 000.0380 011.3598 0003281 153.4979 195.1521 05.0011578406799,0.038,0.0003281,5.00115784,11.3598,153.4979,195.1521
40349,O3B FM11,MEO,18251.52647693,1 40349U 14083B   18251.52647693 -.00000029 +00000-0 +00000-0 0 0001\,2 40349 000.0381 011.3966 0003280 154.2778 194.3346 05.0011580906803,0.0381,0.000328,5.00115809,11.3966,154.2778,194.3346
40349,O3B FM11,MEO,18251.72636730,1 40349U 14083B   18251.72636730 -.00000029 +00000-0 +00000-0 0 0001\,2 40349 000.0381 011.5044 0003280 154.4108 194.0936 05.0011581006805,0.0381,0.000328,5.0011581,11.5044,154.4108,194.0936
40349,O3B FM11,MEO,18252.52592909,1 40349U 14083B   18252.52592909 -.00000030 +00000-0 +00000-0 0 0001\,2 40349 000.0381 011.6052 0003279 154.9456 193.4574 05.0011580106809,0.0381,0.0003279,5.00115801,11.6052,154.9456,193.4574
40349,O3B FM11,MEO,18253.92516196,1 40349U 14083B   18253.92516196 -.00000031  00000-0  00000+0 0  2935\,2 40349   0.0382  11.7746 0003279 156.0516 192.1814  5.00115817 68161,0.0382,0.0003279,5.00115817,11.7746,156.0516,192.1814
40349,O3B FM11,MEO,18254.92461434,1 40349U 14083B   18254.92461434 -.00000032 +00000-0 +00000-0 0 0001\,2 40349 000.0383 011.7940 0003278 157.0748 191.1382 05.0011580606821,0.0383,0.0003278,5.00115806,11.794,157.0748,191.1382
40349,O3B FM11,MEO,18256.32384747,1 40349U 14083B   18256.32384747 -.00000032 +00000-0 +00000-0 0 0001\,2 40349 000.0384 011.9539 0003281 157.8554 190.1976 05.0011582606828,0.0384,0.0003281,5.00115826,11.9539,157.8554,190.1976
40349,O3B FM11,MEO,18256.72362842,1 40349U 14083B   18256.72362842 -.00000032 +00000-0 +00000-0 0 0001\,2 40349 000.0384 011.9354 0003281 158.0373 190.0342 05.0011583006829,0.0384,0.0003281,5.0011583,11.9354,158.0373,190.0342
40349,O3B FM11,MEO,18257.52318968,1 40349U 14083B   18257.52318968 -.00000033 +00000-0 +00000-0 0 0001\,2 40349 000.0384 012.0531 0003280 158.9698 188.9836 05.0011587006833,0.0384,0.000328,5.0011587,12.0531,158.9698,188.9836
40349,O3B FM11,MEO,18257.72308014,1 40349U 14083B   18257.72308014 -.00000033 +00000-0 +00000-0 0 0001\,2 40349 000.0384 012.1368 0003281 158.8632 189.0065 05.0011587706835,0.0384,0.0003281,5.00115877,12.1368,158.8632,189.0065
40349,O3B FM11,MEO,18258.12286102,1 40349U 14083B   18258.12286102 -.00000033  00000-0  00000+0 0  2946\,2 40349   0.0385  12.1078 0003281 159.1837 188.7149  5.00115881 68376,0.0385,0.0003281,5.00115881,12.1078,159.1837,188.7149
40349,O3B FM11,MEO,18258.32275155,1 40349U 14083B   18258.32275155 -.00000033 +00000-0 +00000-0 0 0001\,2 40349 000.0385 012.2053 0003282 159.3019 188.4991 05.0011587606838,0.0385,0.0003282,5.00115876,12.2053,159.3019,188.4991
40349,O3B FM11,MEO,18258.72253249,1 40349U 14083B   18258.72253249 -.00000033 +00000-0 +00000-0 0 0001\,2 40349 000.0385 012.2602 0003282 159.5657 188.1804 05.0011587506840,0.0385,0.0003282,5.00115875,12.2602,159.5657,188.1804
40349,O3B FM11,MEO,18259.52209426,1 40349U 14083B   18259.52209426 -.00000033 +00000-0 +00000-0 0 0001\,2 40349 000.0386 012.3042 0003281 160.2201 187.4817 05.0011587706843,0.0386,0.0003281,5.00115877,12.3042,160.2201,187.4817
40349,O3B FM11,MEO,18259.72198477,1 40349U 14083B   18259.72198477 -.00000033 +00000-0 +00000-0 0 0001\,2 40349 000.0386 012.4046 0003282 160.3328 187.2685 05.0011587406845,0.0386,0.0003282,5.00115874,12.4046,160.3328,187.2685
40349,O3B FM11,MEO,18260.52154639,1 40349U 14083B   18260.52154639 -.00000033 +00000-0 +00000-0 0 0001\,2 40349 000.0387 012.4558 0003282 160.9166 186.6333 05.0011589006848,0.0387,0.0003282,5.0011589,12.4558,160.9166,186.6333
40349,O3B FM11,MEO,18260.72143671,1 40349U 14083B   18260.72143671 -.00000033 +00000-0 +00000-0 0 0001\,2 40349 000.0387 012.4957 0003283 161.1008 186.4091 05.0011589806849,0.0387,0.0003283,5.00115898,12.4957,161.1008,186.4091
40349,O3B FM11,MEO,18261.52099845,1 40349U 14083B   18261.52099845 -.00000033 +00000-0 +00000-0 0 0001\,2 40349 000.0387 012.6973 0003283 161.7316 185.5763 05.0011589806854,0.0387,0.0003283,5.00115898,12.6973,161.7316,185.5763
40349,O3B FM11,MEO,18262.32056015,1 40349U 14083B   18262.32056015 -.00000033  00000-0  00000+0 0  2952\,2 40349   0.0388  12.7611 0003284 162.3429 184.9010  5.00115903 68587,0.0388,0.0003284,5.00115903,12.7611,162.3429,184.901
40349,O3B FM11,MEO,18262.72034098,1 40349U 14083B   18262.72034098 -.00000032 +00000-0 +00000-0 0 0001\,2 40349 000.0388 012.8170 0003284 162.6986 184.4892 05.0011590306860,0.0388,0.0003284,5.00115903,12.817,162.6986,184.4892
40349,O3B FM11,MEO,18263.51990259,1 40349U 14083B   18263.51990259 -.00000031 +00000-0 +00000-0 0 0001\,2 40349 000.0389 012.9979 0003283 163.3164 183.6903 05.0011591206864,0.0389,0.0003283,5.00115912,12.9979,163.3164,183.6903
40349,O3B FM11,MEO,18265.51880673,1 40349U 14083B   18265.51880673 -.00000028 +00000-0 +00000-0 0 0001\,2 40349 000.0390 013.1796 0003282 164.9698 181.8548 05.0011592206874,0.039,0.0003282,5.00115922,13.1796,164.9698,181.8548
40349,O3B FM11,MEO,18265.51880690,1 40349U 14083B   18265.51880690 -.00000028 +00000-0 +00000-0 0 0001\,2 40349 000.0390 013.2658 0003282 164.8420 181.8964 05.0011591106874,0.039,0.0003282,5.00115911,13.2658,164.842,181.8964
